OBJECT_NAME,OBJECT_ID,EPOCH,MEAN_MOTION,ECCENTRICITY,INCLINATION,RA_OF_ASC_NODE,ARG_OF_PERICENTER,MEAN_ANOMALY,EPHEMERIS_TYPE,CLASSIFICATION_TYPE,NORAD_CAT_ID,ELEMENT_SET_NO,REV_AT_EPOCH,BSTAR,MEAN_MOTION_DOT,MEAN_MOTION_DDOT
STARLINK-32014,2024-120R,2026-03-09T09:34:39.793152,15.30186573,.0001315,53.1582,321.1328,96.7773,263.3377,0,U,60150,999,9633,-.88447E-4,-.2977E-4,0
OBJECT P,2018-099P,2026-03-08T15:29:52.588320,15.30787313,.00077117,97.4366,130.8712,281.0146,79.0227,0,U,43771,999,39814,.91234571E-3,.27159E-3,0
